STARLINK-31017          
1 58515U 23191H   26068.71937380  .00000350  00000+0  22252-4 0  9994
2 58515  43.0039 230.9942 0001578 261.0061  99.0612 15.27582052128185
TEVEL2-7                
1 63238U 25052AE  26068.66113295  .00019244  00000+0  69668-3 0  9998
2 63238  97.4054 324.3041 0008105 124.6830 235.5175 15.28414096 54803
